NORAD_CAT_ID,OBJECT_NAME,OBJECT_TYPE,EPOCH,MEAN_MOTION,ECCENTRICITY,INCLINATION,RA_OF_ASC_NODE,ARG_OF_PERICENTER,MEAN_ANOMALY,BSTAR,MEAN_MOTION_DOT,MEAN_MOTION_DDOT,TLE_LINE0,TLE_LINE1,TLE_LINE2,SEMIMAJOR_AXIS,PERIOD,APOGEE,PERIGEE,DECAYED
52291.0,STARLINK-3773,PAYLOAD,2023-03-26 17:18:12,15.088303,0.0001133,53.2161,262.7992,71.9394,288.1722,0.0007671,0.00011938,0.0,0 STARLINK-3773,1 52291U 22041AG  23085.72098011  .00011938  00000-0  76710-3 0  9990,2 52291  53.2161 262.7992 0001133  71.9394 288.1722 15.08830300 51618,6917.91,95.438,540.559,538.991,0.0
52291.0,STARLINK-3773,PAYLOAD,2023-03-27 04:25:54,15.08843998,2.42e-05,53.2162,260.719,1.142,358.9572,0.00055009,8.479e-05,0.0,0 STARLINK-3773,1 52291U 22041AG  23086.18465320  .00008479  00000-0  55009-3 0  9996,2 52291  53.2162 260.7190 0000242   1.1420 358.9572 15.08843998 52901,6917.868,95.437,539.901,539.566,0.0
52291.0,STARLINK-3773,PAYLOAD,2023-03-27 18:44:21,15.08866294,7.63e-05,53.2163,258.0412,63.6134,296.4937,0.00073066,0.00011368,0.0,0 STARLINK-3773,1 52291U 22041AG  23086.78080521  .00011368  00000-0  73066-3 0  9992,2 52291  53.2163 258.0412 0000763  63.6134 296.4937 15.08866294 52996,6917.8,95.436,540.193,539.137,0.0
52291.0,STARLINK-3773,PAYLOAD,2023-03-28 04:16:40,15.08857322,7.94e-05,53.216,256.2586,59.9088,300.1983,0.00030896,4.635e-05,0.0,0 STARLINK-3773,1 52291U 22041AG  23087.17824412  .00004635  00000-0  30896-3 0  9994,2 52291  53.2160 256.2586 0000794  59.9088 300.1983 15.08857322 53059,6917.827,95.436,540.242,539.143,0.0
52291.0,STARLINK-3773,PAYLOAD,2023-03-28 20:10:31,15.08855858,0.0001014,53.2162,253.2848,62.8474,297.2621,0.00013669,1.889e-05,0.0,0 STARLINK-3773,1 52291U 22041AG  23087.84064041  .00001889  00000-0  13669-3 0  9999,2 52291  53.2162 253.2848 0001014  62.8474 297.2621 15.08855858 51939,6917.832,95.437,540.398,538.995,0.0
52291.0,STARLINK-3773,PAYLOAD,2023-03-29 04:07:27,15.08848326,0.0001001,53.216,251.7962,63.9156,296.1939,-3.853e-06,-3.49e-06,0.0,0 STARLINK-3773,1 52291U 22041AG  23088.17184059 -.00000349  00000-0 -38530-5 0  9996,2 52291  53.2160 251.7962 0001001  63.9156 296.1939 15.08848326 53206,6917.855,95.437,540.412,539.027,0.0
52291.0,STARLINK-3773,PAYLOAD,2023-03-29 18:25:55,15.0885632,9.56e-05,53.2151,249.1214,63.7673,296.3418,0.00059628,9.219e-05,0.0,0 STARLINK-3773,1 52291U 22041AG  23088.76799781  .00009219  00000-0  59628-3 0  9997,2 52291  53.2151 249.1214 0000956  63.7673 296.3418 15.08856320 52078,6917.831,95.437,540.357,539.034,0.0
52291.0,STARLINK-3773,PAYLOAD,2023-03-30 03:58:13,15.08832056,9.58e-05,53.216,247.3376,270.1036,89.9846,-0.00037682,-6.278e-05,0.0,0 STARLINK-3773,1 52291U 22041AG  23089.16543358 -.00006278  00000-0 -37682-3 0  9999,2 52291  53.2160 247.3376 0000958 270.1036  89.9846 15.08832056 53359,6917.905,95.438,540.432,539.107,0.0
52291.0,STARLINK-3773,PAYLOAD,2023-03-30 16:41:19,15.08842123,0.0001199,53.2146,244.958,68.489,291.623,0.001941,0.0003074,0.0,0 STARLINK-3773,1 52291U 22041AG  23089.69536549  .00030740  00000-0  19410-2 0  9998,2 52291  53.2146 244.9580 0001199  68.4890 291.6230 15.08842123 53431,6917.874,95.437,540.568,538.909,0.0
52291.0,STARLINK-3773,PAYLOAD,2023-03-31 03:49:01,15.08844118,0.0001066,53.2151,242.8787,58.3011,301.8085,0.0010922,0.00017139,0.0,0 STARLINK-3773,1 52291U 22041AG  23090.15904580  .00017139  00000-0  10922-2 0  9991,2 52291  53.2151 242.8787 0001066  58.3011 301.8085 15.08844118 53505,6917.868,95.437,540.47,538.995,0.0
52291.0,STARLINK-3773,PAYLOAD,2023-04-01 13:12:07,15.08835825,8.9e-05,53.2159,236.6318,86.5651,273.5443,0.00099105,0.00015518,0.0,0 STARLINK-3773,1 52291U 22041AG  23091.55009252  .00015518  00000-0  99105-3 0  9998,2 52291  53.2159 236.6318 0000890  86.5651 273.5443 15.08835825 53712,6917.893,95.438,540.374,539.142,0.0
52291.0,STARLINK-3773,PAYLOAD,2023-04-01 16:22:54,15.08839254,0.0001011,53.2157,236.0361,101.8671,258.2434,0.0014769,0.00023294,0.0,0 STARLINK-3773,1 52291U 22041AG  23091.68257332  .00023294  00000-0  14769-2 0  9998,2 52291  53.2157 236.0361 0001011 101.8671 258.2434 15.08839254 52518,6917.883,95.438,540.447,539.048,0.0
52291.0,STARLINK-3773,PAYLOAD,2023-04-02 14:38:17,15.08867967,0.0001354,53.2151,231.8738,100.9977,259.1167,0.0012206,0.00019206,0.0,0 STARLINK-3773,1 52291U 22041AG  23092.60992699  .00019206  00000-0  12206-2 0  9995,2 52291  53.2151 231.8738 0001354 100.9977 259.1167 15.08867967 52652,6917.795,95.436,540.597,538.723,0.0
52291.0,STARLINK-3773,PAYLOAD,2023-04-02 19:24:26,15.08881379,0.0001284,53.216,230.9825,97.4604,262.6534,0.001338,0.00021095,0.0,0 STARLINK-3773,1 52291U 22041AG  23092.80864067  .00021095  00000-0  13380-2 0  9997,2 52291  53.2160 230.9825 0001284  97.4604 262.6534 15.08881379 53907,6917.754,95.435,540.507,538.731,0.0
52291.0,STARLINK-3773,PAYLOAD,2023-04-03 01:45:59,15.08849975,0.0001645,53.2164,229.7937,78.3584,281.7593,0.00044245,6.762e-05,0.0,0 STARLINK-3773,1 52291U 22041AG  23093.07360528  .00006762  00000-0  44245-3 0  9999,2 52291  53.2164 229.7937 0001645  78.3584 281.7593 15.08849975 53944,6917.85,95.437,540.853,538.577,0.0
52291.0,STARLINK-3773,PAYLOAD,2023-04-03 08:07:32,15.08852526,0.0001964,53.217,228.6064,84.1844,275.9372,0.00065608,0.00010172,0.0,0 STARLINK-3773,1 52291U 22041AG  23093.33856503  .00010172  00000-0  65608-3 0  9997,2 52291  53.2170 228.6064 0001964  84.1844 275.9372 15.08852526 52763,6917.842,95.437,541.066,538.348,0.0
52291.0,STARLINK-3773,PAYLOAD,2023-04-03 17:39:51,15.08829262,0.0001408,53.2165,226.8195,77.3327,282.7822,0.00088235,0.00013778,0.0,0 STARLINK-3773,1 52291U 22041AG  23093.73601058  .00013778  00000-0  88235-3 0  9990,2 52291  53.2165 226.8195 0001408  77.3327 282.7822 15.08829262 54045,6917.913,95.438,540.752,538.804,0.0
52291.0,STARLINK-3773,PAYLOAD,2023-04-04 11:09:05,15.08849211,0.0001357,53.2165,223.5478,78.4141,281.7003,0.00096488,0.00015105,0.0,0 STARLINK-3773,1 52291U 22041AG  23094.46465082  .00015105  00000-0  96488-3 0  9991,2 52291  53.2165 223.5478 0001357  78.4141 281.7003 15.08849211 52934,6917.852,95.437,540.656,538.778,0.0
52291.0,STARLINK-3773,PAYLOAD,2023-04-04 19:06:00,15.08868198,0.0001311,53.2159,222.059,86.8591,273.2551,0.0012434,0.00019571,0.0,0 STARLINK-3773,1 52291U 22041AG  23094.79584446  .00019571  00000-0  12434-2 0  9992,2 52291  53.2159 222.0590 0001311  86.8591 273.2551 15.08868198 54209,6917.794,95.436,540.566,538.752,0.0
52291.0,STARLINK-3773,PAYLOAD,2023-04-05 14:10:37,15.08855972,0.0001814,53.216,218.4907,130.0072,230.108,0.00025083,3.708e-05,0.0,0 STARLINK-3773,1 52291U 22041AG  23095.59071546  .00003708  00000-0  25083-3 0  9993,2 52291  53.2160 218.4907 0001814 130.0072 230.1080 15.08855972 54324,6917.832,95.437,540.951,538.442,0.0
52291.0,STARLINK-3773,PAYLOAD,2023-04-05 15:46:01,15.08862833,0.0001395,53.2165,218.1952,73.0715,287.043,0.00051484,7.92e-05,0.0,0 STARLINK-3773,1 52291U 22041AG  23095.65695892  .00007920  00000-0  51484-3 0  9990,2 52291  53.2165 218.1952 0001395  73.0715 287.0430 15.08862833 53110,6917.811,95.436,540.641,538.711,0.0
52291.0,STARLINK-3773,PAYLOAD,2023-04-06 07:39:53,15.08819984,7.42e-05,53.2165,215.2217,112.3904,247.7167,-0.00045288,-7.484e-05,0.0,0 STARLINK-3773,1 52291U 22041AG  23096.31936356 -.00007484  00000-0 -45288-3 0  9999,2 52291  53.2165 215.2217 0000742 112.3904 247.7167 15.08819984 54439,6917.942,95.439,540.32,539.293,0.0
52291.0,STARLINK-3773,PAYLOAD,2023-04-06 12:26:02,15.08824132,9.44e-05,53.2156,214.3285,103.4194,256.6903,0.0012814,0.00020155,0.0,0 STARLINK-3773,1 52291U 22041AG  23096.51808784  .00020155  00000-0  12814-2 0  9990,2 52291  53.2156 214.3285 0000944 103.4194 256.6903 15.08824132 53246,6917.929,95.439,540.447,539.141,0.0
52291.0,STARLINK-3773,PAYLOAD,2023-04-06 17:12:12,15.08832784,0.0001059,53.2163,213.4356,100.6427,259.4684,0.0021925,0.00034771,0.0,0 STARLINK-3773,1 52291U 22041AG  23096.71681025  .00034771  00000-0  21925-2 0  9991,2 52291  53.2163 213.4356 0001059 100.6427 259.4684 15.08832784 54496,6917.902,95.438,540.5,539.035,0.0
52291.0,STARLINK-3773,PAYLOAD,2023-04-07 01:09:08,15.0882608,0.0001906,53.2169,211.9496,83.5192,276.6017,0.001179,0.00018518,0.0,0 STARLINK-3773,1 52291U 22041AG  23097.04801804  .00018518  00000-0  11790-2 0  9997,2 52291  53.2169 211.9496 0001906  83.5192 276.6017 15.08826080 54548,6917.923,95.438,541.106,538.469,0.0
52291.0,STARLINK-3773,PAYLOAD,2023-04-07 12:16:50,15.08845278,0.0001492,53.215,209.8681,82.0086,278.1075,0.001172,0.00018416,0.0,0 STARLINK-3773,1 52291U 22041AG  23097.51169628  .00018416  00000-0  11720-2 0  9990,2 52291  53.2150 209.8681 0001492  82.0086 278.1075 15.08845278 53399,6917.864,95.437,540.761,538.697,0.0
52291.0,STARLINK-3773,PAYLOAD,2023-04-08 00:59:55,15.08842297,7.54e-05,53.2169,207.4911,74.4371,285.6704,0.0005089,7.821e-05,0.0,0 STARLINK-3773,1 52291U 22041AG  23098.04161370  .00007821  00000-0  50890-3 0  9995,2 52291  53.2169 207.4911 0000754  74.4371 285.6704 15.08842297 54695,6917.873,95.437,540.26,539.217,0.0
52291.0,STARLINK-3773,PAYLOAD,2023-04-08 12:07:37,15.08845512,0.0001526,53.2147,205.4076,89.2175,270.8992,0.0003285,4.945e-05,0.0,0 STARLINK-3773,1 52291U 22041AG  23098.50529543  .00004945  00000-0  32850-3 0  9996,2 52291  53.2147 205.4076 0001526  89.2175 270.8992 15.08845512 53546,6917.864,95.437,540.784,538.673,0.0
52291.0,STARLINK-3773,PAYLOAD,2023-04-09 10:23:01,15.08842454,0.0001098,53.2153,201.2457,77.0698,283.0416,0.00047817,7.331e-05,0.0,0 STARLINK-3773,1 52291U 22041AG  23099.43265571  .00007331  00000-0  47817-3 0  9998,2 52291  53.2153 201.2457 0001098  77.0698 283.0416 15.08842454 54909,6917.873,95.437,540.497,538.978,0.0
52291.0,STARLINK-3773,PAYLOAD,2023-04-09 16:44:33,15.08852619,0.000138,53.2173,200.0571,101.65,258.4647,0.0006391,9.901e-05,0.0,0 STARLINK-3773,1 52291U 22041AG  23099.69761318  .00009901  00000-0  63910-3 0  9993,2 52291  53.2173 200.0571 0001380 101.6500 258.4647 15.08852619 53720,6917.842,95.437,540.661,538.752,0.0
